CCSDS_OMM_VERS = 2.0
CREATION_DATE  = 
ORIGINATOR     = 

OBJECT_NAME    = SL-16 R/B
OBJECT_ID      = 1993-016B
CENTER_NAME    = EARTH
REF_FRAME      = TEME
TIME_SYSTEM    = UTC
MEAN_ELEMENT_THEORY = SGP/SGP4

EPOCH          = 2026-01-01T10:10:59.621088
MEAN_MOTION    = 14.15295824
ECCENTRICITY   = .0008046
INCLINATION    = 71.0088
RA_OF_ASC_NODE = 356.4589
ARG_OF_PERICENTER = 57.8548
MEAN_ANOMALY   = 302.3355

EPHEMERIS_TYPE = 0
CLASSIFICATION_TYPE = U
NORAD_CAT_ID   = 22566
ELEMENT_SET_NO = 999
REV_AT_EPOCH   = 69265
BSTAR          = .34717E-4
MEAN_MOTION_DOT = .2E-6
MEAN_MOTION_DDOT = 0

CCSDS_OMM_VERS = 2.0
CREATION_DATE  = 
ORIGINATOR     = 

OBJECT_NAME    = COSMOS 2242
OBJECT_ID      = 1993-024A
CENTER_NAME    = EARTH
REF_FRAME      = TEME
TIME_SYSTEM    = UTC
MEAN_ELEMENT_THEORY = SGP/SGP4

EPOCH          = 2026-01-01T18:24:00.516960
MEAN_MOTION    = 14.96207972
ECCENTRICITY   = .0016674
INCLINATION    = 82.5193
RA_OF_ASC_NODE = 330.7011
ARG_OF_PERICENTER = 164.1456
MEAN_ANOMALY   = 196.0292

EPHEMERIS_TYPE = 0
CLASSIFICATION_TYPE = U
NORAD_CAT_ID   = 22626
ELEMENT_SET_NO = 999
REV_AT_EPOCH   = 77038
BSTAR          = .38255E-3
MEAN_MOTION_DOT = .4349E-4
MEAN_MOTION_DDOT = 0

CCSDS_OMM_VERS = 2.0
CREATION_DATE  = 
ORIGINATOR     = 

OBJECT_NAME    = SL-16 R/B
OBJECT_ID      = 1993-059B
CENTER_NAME    = EARTH
REF_FRAME      = TEME
TIME_SYSTEM    = UTC
MEAN_ELEMENT_THEORY = SGP/SGP4

EPOCH          = 2026-01-01T18:39:26.462304
MEAN_MOTION    = 14.17219537
ECCENTRICITY   = .0019096
INCLINATION    = 70.9900
RA_OF_ASC_NODE = 152.2322
ARG_OF_PERICENTER = 307.3288
MEAN_ANOMALY   = 52.6095

EPHEMERIS_TYPE = 0
CLASSIFICATION_TYPE = U
NORAD_CAT_ID   = 22803
ELEMENT_SET_NO = 999
REV_AT_EPOCH   = 67005
BSTAR          = .25124E-4
MEAN_MOTION_DOT = .3E-7
MEAN_MOTION_DDOT = 0

CCSDS_OMM_VERS = 2.0
CREATION_DATE  = 
ORIGINATOR     = 

OBJECT_NAME    = ARIANE 40 R/B
OBJECT_ID      = 1993-061H
CENTER_NAME    = EARTH
REF_FRAME      = TEME
TIME_SYSTEM    = UTC
MEAN_ELEMENT_THEORY = SGP/SGP4

EPOCH          = 2026-01-01T17:31:30.031680
MEAN_MOTION    = 14.32817508
ECCENTRICITY   = .0011718
INCLINATION    = 98.5047
RA_OF_ASC_NODE = 71.8939
ARG_OF_PERICENTER = 120.4287
MEAN_ANOMALY   = 239.8057

EPHEMERIS_TYPE = 0
CLASSIFICATION_TYPE = U
NORAD_CAT_ID   = 22830
ELEMENT_SET_NO = 999
REV_AT_EPOCH   = 68451
BSTAR          = .23407E-3
MEAN_MOTION_DOT = .596E-5
MEAN_MOTION_DDOT = 0

CCSDS_OMM_VERS = 2.0
CREATION_DATE  = 
ORIGINATOR     = 

OBJECT_NAME    = COSMOS 2278
OBJECT_ID      = 1994-023A
CENTER_NAME    = EARTH
REF_FRAME      = TEME
TIME_SYSTEM    = UTC
MEAN_ELEMENT_THEORY = SGP/SGP4

EPOCH          = 2026-01-01T06:26:13.786368
MEAN_MOTION    = 14.14353019
ECCENTRICITY   = .0007498
INCLINATION    = 71.0541
RA_OF_ASC_NODE = 316.1531
ARG_OF_PERICENTER = 144.1151
MEAN_ANOMALY   = 216.0476

EPHEMERIS_TYPE = 0
CLASSIFICATION_TYPE = U
NORAD_CAT_ID   = 23087
ELEMENT_SET_NO = 999
REV_AT_EPOCH   = 63527
BSTAR          = .2448E-3
MEAN_MOTION_DOT = .421E-5
MEAN_MOTION_DDOT = 0

CCSDS_OMM_VERS = 2.0
CREATION_DATE  = 
ORIGINATOR     = 

OBJECT_NAME    = SL-16 R/B
OBJECT_ID      = 1994-023B
CENTER_NAME    = EARTH
REF_FRAME      = TEME
TIME_SYSTEM    = UTC
MEAN_ELEMENT_THEORY = SGP/SGP4

EPOCH          = 2026-01-01T18:28:02.138016
MEAN_MOTION    = 14.14998907
ECCENTRICITY   = .0002449
INCLINATION    = 70.9976
RA_OF_ASC_NODE = 211.4237
ARG_OF_PERICENTER = 356.1426
MEAN_ANOMALY   = 3.9677

EPHEMERIS_TYPE = 0
CLASSIFICATION_TYPE = U
NORAD_CAT_ID   = 23088
ELEMENT_SET_NO = 999
REV_AT_EPOCH   = 63662
BSTAR          = .95471E-4
MEAN_MOTION_DOT = .137E-5
MEAN_MOTION_DDOT = 0

CCSDS_OMM_VERS = 2.0
CREATION_DATE  = 
ORIGINATOR     = 

OBJECT_NAME    = SL-16 R/B
OBJECT_ID      = 1994-074B
CENTER_NAME    = EARTH
REF_FRAME      = TEME
TIME_SYSTEM    = UTC
MEAN_ELEMENT_THEORY = SGP/SGP4

EPOCH          = 2026-01-01T16:57:46.240416
MEAN_MOTION    = 14.79317029
ECCENTRICITY   = .0008015
INCLINATION    = 97.7183
RA_OF_ASC_NODE = 35.2157
ARG_OF_PERICENTER = 81.6604
MEAN_ANOMALY   = 34.0119

EPHEMERIS_TYPE = 0
CLASSIFICATION_TYPE = U
NORAD_CAT_ID   = 23343
ELEMENT_SET_NO = 999
REV_AT_EPOCH   = 67734
BSTAR          = .14438E-3
MEAN_MOTION_DOT = .1026E-4
MEAN_MOTION_DDOT = 0

CCSDS_OMM_VERS = 2.0
CREATION_DATE  = 
ORIGINATOR     = 

OBJECT_NAME    = SL-16 R/B
OBJECT_ID      = 1994-077B
CENTER_NAME    = EARTH
REF_FRAME      = TEME
TIME_SYSTEM    = UTC
MEAN_ELEMENT_THEORY = SGP/SGP4

EPOCH          = 2026-01-01T16:57:23.062752
MEAN_MOTION    = 14.15550238
ECCENTRICITY   = .0005037
INCLINATION    = 70.9826
RA_OF_ASC_NODE = 133.4095
ARG_OF_PERICENTER = 267.9440
MEAN_ANOMALY   = 92.1106

EPHEMERIS_TYPE = 0
CLASSIFICATION_TYPE = U
NORAD_CAT_ID   = 23405
ELEMENT_SET_NO = 999
REV_AT_EPOCH   = 60675
BSTAR          = -.61686E-4
MEAN_MOTION_DOT = -.169E-5
MEAN_MOTION_DDOT = 0

CCSDS_OMM_VERS = 2.0
CREATION_DATE  = 
ORIGINATOR     = 

OBJECT_NAME    = ARIANE 40+ R/B
OBJECT_ID      = 1995-021B
CENTER_NAME    = EARTH
REF_FRAME      = TEME
TIME_SYSTEM    = UTC
MEAN_ELEMENT_THEORY = SGP/SGP4

EPOCH          = 2026-01-01T18:17:31.888032
MEAN_MOTION    = 14.39714015
ECCENTRICITY   = .0006426
INCLINATION    = 98.4625
RA_OF_ASC_NODE = 74.1072
ARG_OF_PERICENTER = 351.6536
MEAN_ANOMALY   = 120.7813

EPHEMERIS_TYPE = 0
CLASSIFICATION_TYPE = U
NORAD_CAT_ID   = 23561
ELEMENT_SET_NO = 999
REV_AT_EPOCH   = 60961
BSTAR          = .23159E-3
MEAN_MOTION_DOT = .682E-5
MEAN_MOTION_DDOT = 0

CCSDS_OMM_VERS = 2.0
CREATION_DATE  = 
ORIGINATOR     = 

OBJECT_NAME    = SL-16 R/B
OBJECT_ID      = 1995-058B
CENTER_NAME    = EARTH
REF_FRAME      = TEME
TIME_SYSTEM    = UTC
MEAN_ELEMENT_THEORY = SGP/SGP4

EPOCH          = 2026-01-01T13:39:11.096352
MEAN_MOTION    = 14.15483179
ECCENTRICITY   = .0014301
INCLINATION    = 71.0222
RA_OF_ASC_NODE = 321.1727
ARG_OF_PERICENTER = 228.6349
MEAN_ANOMALY   = 131.3545

EPHEMERIS_TYPE = 0
CLASSIFICATION_TYPE = U
NORAD_CAT_ID   = 23705
ELEMENT_SET_NO = 999
REV_AT_EPOCH   = 55835
BSTAR          = .16429E-3
MEAN_MOTION_DOT = .274E-5
MEAN_MOTION_DDOT = 0

CCSDS_OMM_VERS = 2.0
CREATION_DATE  = 
ORIGINATOR     = 

OBJECT_NAME    = SL-16 R/B
OBJECT_ID      = 1996-051B
CENTER_NAME    = EARTH
REF_FRAME      = TEME
TIME_SYSTEM    = UTC
MEAN_ELEMENT_THEORY = SGP/SGP4

EPOCH          = 2026-01-01T07:39:05.295456
MEAN_MOTION    = 14.12398820
ECCENTRICITY   = .0019423
INCLINATION    = 70.7598
RA_OF_ASC_NODE = 317.8403
ARG_OF_PERICENTER = 237.3203
MEAN_ANOMALY   = 122.6043

EPHEMERIS_TYPE = 0
CLASSIFICATION_TYPE = U
NORAD_CAT_ID   = 24298
ELEMENT_SET_NO = 999
REV_AT_EPOCH   = 51213
BSTAR          = .48398E-4
MEAN_MOTION_DOT = .4E-6
MEAN_MOTION_DDOT = 0

CCSDS_OMM_VERS = 2.0
CREATION_DATE  = 
ORIGINATOR     = 

OBJECT_NAME    = ORBVIEW 2 (SEASTAR)
OBJECT_ID      = 1997-037A
CENTER_NAME    = EARTH
REF_FRAME      = TEME
TIME_SYSTEM    = UTC
MEAN_ELEMENT_THEORY = SGP/SGP4

EPOCH          = 2026-01-01T10:23:17.139264
MEAN_MOTION    = 14.35434569
ECCENTRICITY   = .0001302
INCLINATION    = 98.8470
RA_OF_ASC_NODE = 164.0047
ARG_OF_PERICENTER = 248.1728
MEAN_ANOMALY   = 111.9318

EPHEMERIS_TYPE = 0
CLASSIFICATION_TYPE = U
NORAD_CAT_ID   = 24883
ELEMENT_SET_NO = 999
REV_AT_EPOCH   = 49882
BSTAR          = .23912E-3
MEAN_MOTION_DOT = .64E-5
MEAN_MOTION_DDOT = 0

