SL-16 R/B               
1 22566U 93016B   26001.42430117  .00000020  00000+0  34717-4 0  9998
2 22566  71.0088 356.4589 0008046  57.8548 302.3355 14.15295824692652
COSMOS 2242             
1 22626U 93024A   26001.76667265  .00004349  00000+0  38255-3 0  9995
2 22626  82.5193 330.7011 0016674 164.1456 196.0292 14.96207972770385
SL-16 R/B               
1 22803U 93059B   26001.77738961  .00000003  00000+0  25124-4 0  9998
2 22803  70.9900 152.2322 0019096 307.3288  52.6095 14.17219537670050
ARIANE 40 R/B           
1 22830U 93061H   26001.73020870  .00000596  00000+0  23407-3 0  9998
2 22830  98.5047  71.8939 0011718 120.4287 239.8057 14.32817508684516
COSMOS 2278             
1 23087U 94023A   26001.26821512  .00000421  00000+0  24480-3 0  9991
2 23087  71.0541 316.1531 0007498 144.1151 216.0476 14.14353019635275
SL-16 R/B               
1 23088U 94023B   26001.76946919  .00000137  00000+0  95471-4 0  9999
2 23088  70.9976 211.4237 0002449 356.1426   3.9677 14.14998907636624
SL-16 R/B               
1 23343U 94074B   26001.70678519  .00001026  00000+0  14438-3 0  9992
2 23343  97.7183  35.2157 0008015  81.6604  34.0119 14.79317029677342
SL-16 R/B               
1 23405U 94077B   26001.70651693 -.00000169  00000+0 -61686-4 0  9995
2 23405  70.9826 133.4095 0005037 267.9440  92.1106 14.15550238606757
ARIANE 40+ R/B          
1 23561U 95021B   26001.76217463  .00000682  00000+0  23159-3 0  9997
2 23561  98.4625  74.1072 0006426 351.6536 120.7813 14.39714015609610
SL-16 R/B               
1 23705U 95058B   26001.56887843  .00000274  00000+0  16429-3 0  9999
2 23705  71.0222 321.1727 0014301 228.6349 131.3545 14.15483179558350
SL-16 R/B               
1 24298U 96051B   26001.31881129  .00000040  00000+0  48398-4 0  9997
2 24298  70.7598 317.8403 0019423 237.3203 122.6043 14.12398820512136
ORBVIEW 2 (SEASTAR)     
1 24883U 97037A   26001.43283726  .00000640  00000+0  23912-3 0  9994
2 24883  98.8470 164.0047 0001302 248.1728 111.9318 14.35434569498822
